IRIDIUM 144             
1 43249U 18030A   24262.87194254  .00000922  00000+0  32220-3 0  9994
2 43249  86.4034 196.3347 0002231  91.5653 268.5799 14.34212178338934
IRIDIUM 149             
1 43250U 18030B   24262.73872046  .00000747  00000+0  25968-3 0  9999
2 43250  86.4029 196.3639 0002454  86.4521 273.6956 14.34220765338931
IRIDIUM 157             
1 43251U 18030C   24262.82753287  .00000854  00000+0  29766-3 0  9994
2 43251  86.4033 196.3659 0002659  78.1007 282.0487 14.34222714338921
IRIDIUM 140             
1 43252U 18030D   24263.54424212  .00000871  00000+0  30375-3 0  9995
2 43252  86.4034 196.0813 0002099  85.4900 274.6535 14.34224018339081
IRIDIUM 145             
1 43253U 18030E   24262.90365255  .00000855  00000+0  29837-3 0  9999
2 43253  86.4034 196.3219 0002341  93.7226 266.4238 14.34218445338926
IRIDIUM 146             
1 43254U 18030F   24262.88462359  .00000154  00000+0  47946-4 0  9994
2 43254  86.4032 196.3442 0002240  91.9121 268.2332 14.34213608338937
IRIDIUM 148             
1 43255U 18030G   24263.48082521  .00000904  00000+0  31575-3 0  9994
2 43255  86.4036 196.1289 0002482  86.3458 273.8021 14.34221559339064
IRIDIUM 142             
1 43256U 18030H   24262.82118730  .00000960  00000+0  33574-3 0  9997
2 43256  86.4030 196.3163 0002511  92.4231 267.7252 14.34221251338923
